[
  {
    "OBJECT_NAME": "STARLINK-3631",
    "OBJECT_ID": "22017Y",
    "EPOCH": "2025-11-11T06:30:14.760288",
    "MEAN_MOTION": 15.08839195,
    "ECCENTRICITY": 0.000131,
    "INCLINATION": 53.2189,
    "RA_OF_ASC_NODE": 160.7211,
    "ARG_OF_PERICENTER": 92.3489,
    "MEAN_ANOMALY": 267.7654,
    "EPHEMERIS_TYPE": 0,
    "CLASSIFICATION_TYPE": "U",
    "NORAD_CAT_ID": 51790,
    "ELEMENT_SET_NO": 999,
    "REV_AT_EPOCH": 20609,
    "BSTAR": 0.00022031,
    "MEAN_MOTION_DOT": 3.22e-05,
    "MEAN_MOTION_DDOT": 0.0,
    "TLE_LINE1": "1 51790U 22017Y   25315.27100417  .00003220  00000+0  22031-3 0  9999",
    "TLE_LINE2": "2 51790  53.2189 160.7211 0001310  92.3489 267.7654 15.08839195206093",
    "COMMENT": "Grouped by shell and plane from TLE"
  },
  {
    "OBJECT_NAME": "STARLINK-3602",
    "OBJECT_ID": "22017Z",
    "EPOCH": "2025-11-11T06:46:09.171840",
    "MEAN_MOTION": 15.08818602,
    "ECCENTRICITY": 0.0001366,
    "INCLINATION": 53.2153,
    "RA_OF_ASC_NODE": 160.674,
    "ARG_OF_PERICENTER": 84.1695,
    "MEAN_ANOMALY": 275.9453,
    "EPHEMERIS_TYPE": 0,
    "CLASSIFICATION_TYPE": "U",
    "NORAD_CAT_ID": 51791,
    "ELEMENT_SET_NO": 999,
    "REV_AT_EPOCH": 20604,
    "BSTAR": 0.00012321,
    "MEAN_MOTION_DOT": 1.672e-05,
    "MEAN_MOTION_DDOT": 0.0,
    "TLE_LINE1": "1 51791U 22017Z   25315.28205060  .00001672  00000+0  12321-3 0  9991",
    "TLE_LINE2": "2 51791  53.2153 160.6740 0001366  84.1695 275.9453 15.08818602206043",
    "COMMENT": "Grouped by shell and plane from TLE"
  },
  {
    "OBJECT_NAME": "STARLINK-3626",
    "OBJECT_ID": "22017AA",
    "EPOCH": "2025-11-10T14:25:47.040096",
    "MEAN_MOTION": 15.08839727,
    "ECCENTRICITY": 0.0001497,
    "INCLINATION": 53.2157,
    "RA_OF_ASC_NODE": 163.7293,
    "ARG_OF_PERICENTER": 92.4218,
    "MEAN_ANOMALY": 267.6945,
    "EPHEMERIS_TYPE": 0,
    "CLASSIFICATION_TYPE": "U",
    "NORAD_CAT_ID": 51792,
    "ELEMENT_SET_NO": 999,
    "REV_AT_EPOCH": 20599,
    "BSTAR": 0.0001093,
    "MEAN_MOTION_DOT": 1.452e-05,
    "MEAN_MOTION_DDOT": 0.0,
    "TLE_LINE1": "1 51792U 22017AA  25314.60123889  .00001452  00000+0  10930-3 0  9995",
    "TLE_LINE2": "2 51792  53.2157 163.7293 0001497  92.4218 267.6945 15.08839727205991",
    "COMMENT": "Grouped by shell and plane from TLE"
  },
  {
    "OBJECT_NAME": "STARLINK-3633",
    "OBJECT_ID": "22017AB",
    "EPOCH": "2025-11-11T06:42:13.093344",
    "MEAN_MOTION": 15.08838831,
    "ECCENTRICITY": 0.0001459,
    "INCLINATION": 53.2154,
    "RA_OF_ASC_NODE": 160.6959,
    "ARG_OF_PERICENTER": 89.4668,
    "MEAN_ANOMALY": 270.6492,
    "EPHEMERIS_TYPE": 0,
    "CLASSIFICATION_TYPE": "U",
    "NORAD_CAT_ID": 51793,
    "ELEMENT_SET_NO": 999,
    "REV_AT_EPOCH": 20609,
    "BSTAR": 5.9551e-05,
    "MEAN_MOTION_DOT": 6.6e-06,
    "MEAN_MOTION_DDOT": 0.0,
    "TLE_LINE1": "1 51793U 22017AB  25315.27931821  .00000660  00000+0  59551-4 0  9996",
    "TLE_LINE2": "2 51793  53.2154 160.6959 0001459  89.4668 270.6492 15.08838831206095",
    "COMMENT": "Grouped by shell and plane from TLE"
  },
  {
    "OBJECT_NAME": "STARLINK-3573",
    "OBJECT_ID": "22017AC",
    "EPOCH": "2025-11-10T23:47:29.726592",
    "MEAN_MOTION": 15.08844672,
    "ECCENTRICITY": 0.0001462,
    "INCLINATION": 53.2149,
    "RA_OF_ASC_NODE": 161.9791,
    "ARG_OF_PERICENTER": 90.4652,
    "MEAN_ANOMALY": 269.6508,
    "EPHEMERIS_TYPE": 0,
    "CLASSIFICATION_TYPE": "U",
    "NORAD_CAT_ID": 51794,
    "ELEMENT_SET_NO": 999,
    "REV_AT_EPOCH": 20600,
    "BSTAR": 7.594800000000001e-05,
    "MEAN_MOTION_DOT": 9.21e-06,
    "MEAN_MOTION_DDOT": 0.0,
    "TLE_LINE1": "1 51794U 22017AC  25314.99131628  .00000921  00000+0  75948-4 0  9990",
    "TLE_LINE2": "2 51794  53.2149 161.9791 0001462  90.4652 269.6508 15.08844672206004",
    "COMMENT": "Grouped by shell and plane from TLE"
  },
  {
    "OBJECT_NAME": "STARLINK-3586",
    "OBJECT_ID": "22017AD",
    "EPOCH": "2025-11-11T06:40:53.216544",
    "MEAN_MOTION": 15.08841783,
    "ECCENTRICITY": 0.0001596,
    "INCLINATION": 53.2153,
    "RA_OF_ASC_NODE": 160.8896,
    "ARG_OF_PERICENTER": 93.3774,
    "MEAN_ANOMALY": 266.7401,
    "EPHEMERIS_TYPE": 0,
    "CLASSIFICATION_TYPE": "U",
    "NORAD_CAT_ID": 51795,
    "ELEMENT_SET_NO": 999,
    "REV_AT_EPOCH": 20604,
    "BSTAR": 0.00022663,
    "MEAN_MOTION_DOT": 3.321e-05,
    "MEAN_MOTION_DDOT": 0.0,
    "TLE_LINE1": "1 51795U 22017AD  25315.27839371  .00003321  00000+0  22663-3 0  9995",
    "TLE_LINE2": "2 51795  53.2153 160.8896 0001596  93.3774 266.7401 15.08841783206043",
    "COMMENT": "Grouped by shell and plane from TLE"
  },
  {
    "OBJECT_NAME": "STARLINK-3634",
    "OBJECT_ID": "22017AG",
    "EPOCH": "2025-11-10T23:26:17.876256",
    "MEAN_MOTION": 15.08842502,
    "ECCENTRICITY": 0.0001285,
    "INCLINATION": 53.2162,
    "RA_OF_ASC_NODE": 162.0451,
    "ARG_OF_PERICENTER": 87.5472,
    "MEAN_ANOMALY": 272.5667,
    "EPHEMERIS_TYPE": 0,
    "CLASSIFICATION_TYPE": "U",
    "NORAD_CAT_ID": 51798,
    "ELEMENT_SET_NO": 999,
    "REV_AT_EPOCH": 20604,
    "BSTAR": 7.5945e-05,
    "MEAN_MOTION_DOT": 9.21e-06,
    "MEAN_MOTION_DDOT": 0.0,
    "TLE_LINE1": "1 51798U 22017AG  25314.97659579  .00000921  00000+0  75945-4 0  9999",
    "TLE_LINE2": "2 51798  53.2162 162.0451 0001285  87.5472 272.5667 15.08842502206041",
    "COMMENT": "Grouped by shell and plane from TLE"
  },
  {
    "OBJECT_NAME": "STARLINK-3637",
    "OBJECT_ID": "22017AH",
    "EPOCH": "2025-11-10T23:42:13.563936",
    "MEAN_MOTION": 15.08842549,
    "ECCENTRICITY": 0.0001383,
    "INCLINATION": 53.2156,
    "RA_OF_ASC_NODE": 161.996,
    "ARG_OF_PERICENTER": 77.2458,
    "MEAN_ANOMALY": 282.8689,
    "EPHEMERIS_TYPE": 0,
    "CLASSIFICATION_TYPE": "U",
    "NORAD_CAT_ID": 51799,
    "ELEMENT_SET_NO": 999,
    "REV_AT_EPOCH": 20600,
    "BSTAR": 0.00023130999999999998,
    "MEAN_MOTION_DOT": 3.395e-05,
    "MEAN_MOTION_DDOT": 0.0,
    "TLE_LINE1": "1 51799U 22017AH  25314.98765699  .00003395  00000+0  23131-3 0  9999",
    "TLE_LINE2": "2 51799  53.2156 161.9960 0001383  77.2458 282.8689 15.08842549206002",
    "COMMENT": "Grouped by shell and plane from TLE"
  },
  {
    "OBJECT_NAME": "STARLINK-3592",
    "OBJECT_ID": "22017AK",
    "EPOCH": "2025-11-10T23:36:55.304352",
    "MEAN_MOTION": 15.08838652,
    "ECCENTRICITY": 0.0001623,
    "INCLINATION": 53.2155,
    "RA_OF_ASC_NODE": 162.0121,
    "ARG_OF_PERICENTER": 92.6685,
    "MEAN_ANOMALY": 267.4493,
    "EPHEMERIS_TYPE": 0,
    "CLASSIFICATION_TYPE": "U",
    "NORAD_CAT_ID": 51801,
    "ELEMENT_SET_NO": 999,
    "REV_AT_EPOCH": 20600,
    "BSTAR": 0.0,
    "MEAN_MOTION_DOT": -3.796e-05,
    "MEAN_MOTION_DDOT": 0.0,
    "TLE_LINE1": "1 51801U 22017AK  25314.98397343 -.00003796  00000+0 -22053-3 0  9999",
    "TLE_LINE2": "2 51801  53.2155 162.0121 0001623  92.6685 267.4493 15.08838652206008",
    "COMMENT": "Grouped by shell and plane from TLE"
  },
  {
    "OBJECT_NAME": "STARLINK-3544",
    "OBJECT_ID": "22017AM",
    "EPOCH": "2025-11-10T23:21:00.659520",
    "MEAN_MOTION": 15.08839157,
    "ECCENTRICITY": 0.0001409,
    "INCLINATION": 53.2155,
    "RA_OF_ASC_NODE": 162.0598,
    "ARG_OF_PERICENTER": 88.4666,
    "MEAN_ANOMALY": 271.6487,
    "EPHEMERIS_TYPE": 0,
    "CLASSIFICATION_TYPE": "U",
    "NORAD_CAT_ID": 51803,
    "ELEMENT_SET_NO": 999,
    "REV_AT_EPOCH": 20599,
    "BSTAR": 9.587400000000001e-05,
    "MEAN_MOTION_DOT": 1.238e-05,
    "MEAN_MOTION_DDOT": 0.0,
    "TLE_LINE1": "1 51803U 22017AM  25314.97292430  .00001238  00000+0  95874-4 0  9990",
    "TLE_LINE2": "2 51803  53.2155 162.0598 0001409  88.4666 271.6487 15.08839157205990",
    "COMMENT": "Grouped by shell and plane from TLE"
  },
  {
    "OBJECT_NAME": "STARLINK-5238",
    "OBJECT_ID": "22141AH",
    "EPOCH": "2025-11-10T23:23:01.267872",
    "MEAN_MOTION": 15.08843757,
    "ECCENTRICITY": 0.0001412,
    "INCLINATION": 53.2151,
    "RA_OF_ASC_NODE": 167.2143,
    "ARG_OF_PERICENTER": 95.2286,
    "MEAN_ANOMALY": 264.8867,
    "EPHEMERIS_TYPE": 0,
    "CLASSIFICATION_TYPE": "U",
    "NORAD_CAT_ID": 54188,
    "ELEMENT_SET_NO": 999,
    "REV_AT_EPOCH": 16807,
    "BSTAR": 0.0001646,
    "MEAN_MOTION_DOT": 2.333e-05,
    "MEAN_MOTION_DDOT": 0.0,
    "TLE_LINE1": "1 54188U 22141AH  25314.97432023  .00002333  00000+0  16460-3 0  9991",
    "TLE_LINE2": "2 54188  53.2151 167.2143 0001412  95.2286 264.8867 15.08843757168070",
    "COMMENT": "Grouped by shell and plane from TLE"
  },
  {
    "OBJECT_NAME": "STARLINK-5281",
    "OBJECT_ID": "22141AK",
    "EPOCH": "2025-11-11T00:53:06.505440",
    "MEAN_MOTION": 15.08828659,
    "ECCENTRICITY": 0.0002166,
    "INCLINATION": 53.2149,
    "RA_OF_ASC_NODE": 166.8903,
    "ARG_OF_PERICENTER": 107.2915,
    "MEAN_ANOMALY": 252.8314,
    "EPHEMERIS_TYPE": 0,
    "CLASSIFICATION_TYPE": "U",
    "NORAD_CAT_ID": 54190,
    "ELEMENT_SET_NO": 999,
    "REV_AT_EPOCH": 16808,
    "BSTAR": 0.0,
    "MEAN_MOTION_DOT": -2.64e-05,
    "MEAN_MOTION_DDOT": 0.0,
    "TLE_LINE1": "1 54190U 22141AK  25315.03688085 -.00002640  00000+0 -14785-3 0  9994",
    "TLE_LINE2": "2 54190  53.2149 166.8903 0002166 107.2915 252.8314 15.08828659168088",
    "COMMENT": "Grouped by shell and plane from TLE"
  },
  {
    "OBJECT_NAME": "STARLINK-4619",
    "OBJECT_ID": "22141AL",
    "EPOCH": "2025-11-10T23:33:37.844064",
    "MEAN_MOTION": 15.08842215,
    "ECCENTRICITY": 0.0001221,
    "INCLINATION": 53.2155,
    "RA_OF_ASC_NODE": 167.2617,
    "ARG_OF_PERICENTER": 92.8633,
    "MEAN_ANOMALY": 267.2499,
    "EPHEMERIS_TYPE": 0,
    "CLASSIFICATION_TYPE": "U",
    "NORAD_CAT_ID": 54191,
    "ELEMENT_SET_NO": 999,
    "REV_AT_EPOCH": 16807,
    "BSTAR": 0.00011963,
    "MEAN_MOTION_DOT": 1.617e-05,
    "MEAN_MOTION_DDOT": 0.0,
    "TLE_LINE1": "1 54191U 22141AL  25314.98168801  .00001617  00000+0  11963-3 0  9993",
    "TLE_LINE2": "2 54191  53.2155 167.2617 0001221  92.8633 267.2499 15.08842215168077",
    "COMMENT": "Grouped by shell and plane from TLE"
  }
]